STARLINK-2471           
1 48129U 21027AP  26068.52085448  .00005194  00000+0  18751-3 0  9997
2 48129  53.1624 166.3555 0001298  99.7429 260.3719 15.30176239272486
HERMES-3                
1 63835U 25052BR  26068.93751242  .00020316  00000+0  69958-3 0  9995
2 63835  97.3987 324.6131 0007993 112.9583 247.2502 15.30039785 54863
